NORAD_CAT_ID,OBJECT_NAME,OBJECT_TYPE,EPOCH,MEAN_MOTION,ECCENTRICITY,INCLINATION,RA_OF_ASC_NODE,ARG_OF_PERICENTER,MEAN_ANOMALY,BSTAR,MEAN_MOTION_DOT,MEAN_MOTION_DDOT,TLE_LINE0,TLE_LINE1,TLE_LINE2,SEMIMAJOR_AXIS,PERIOD,APOGEE,PERIGEE,DECAYED
52612.0,STARLINK-4002,PAYLOAD,2023-03-08 15:20:32,15.08868715,0.0001081,53.2139,163.9679,67.8924,292.2183,0.0031226,0.00049799,0.0,0 STARLINK-4002,1 52612U 22052Q   23067.63925990  .00049799  00000-0  31226-2 0  9992,2 52612  53.2139 163.9679 0001081  67.8924 292.2183 15.08868715 45610,6917.793,95.436,540.405,538.91,0.0
52612.0,STARLINK-4002,PAYLOAD,2023-03-09 15:11:18,15.08900496,0.0001015,53.2143,159.5091,106.6187,253.4917,0.0035593,0.0005691,0.0,0 STARLINK-4002,1 52612U 22052Q   23068.63285229  .00056910  00000-0  35593-2 0  9991,2 52612  53.2143 159.5091 0001015 106.6187 253.4917 15.08900496 45767,6917.695,95.434,540.263,538.858,0.0
52612.0,STARLINK-4002,PAYLOAD,2023-03-09 19:57:27,15.08889388,0.0001469,53.2139,158.6111,133.0222,227.0894,0.0012184,0.00019182,0.0,0 STARLINK-4002,1 52612U 22052Q   23068.83156593  .00019182  00000-0  12184-2 0  9995,2 52612  53.2139 158.6111 0001469 133.0222 227.0894 15.08889388 45422,6917.729,95.434,540.611,538.578,0.0
52612.0,STARLINK-4002,PAYLOAD,2023-03-09 23:08:14,15.08834956,0.00013,53.2149,158.0233,95.5821,264.5319,-0.00016681,-2.941e-05,0.0,0 STARLINK-4002,1 52612U 22052Q   23068.96405395 -.00002941  00000-0 -16681-3 0  9990,2 52612  53.2149 158.0233 0001300  95.5821 264.5319 15.08834956 45815,6917.896,95.438,540.66,538.861,0.0
52612.0,STARLINK-4002,PAYLOAD,2023-03-10 11:51:18,15.08863521,0.0001138,53.2147,155.6478,82.4253,277.6868,0.0011872,0.00018669,0.0,0 STARLINK-4002,1 52612U 22052Q   23069.49396887  .00018669  00000-0  11872-2 0  9992,2 52612  53.2147 155.6478 0001138  82.4253 277.6868 15.08863521 45892,6917.808,95.436,540.461,538.886,0.0
52612.0,STARLINK-4002,PAYLOAD,2023-03-10 22:59:01,15.08857269,0.0002091,53.2155,153.5622,95.0945,265.0285,0.0015921,0.00025153,0.0,0 STARLINK-4002,1 52612U 22052Q   23069.95765218  .00025153  00000-0  15921-2 0  9996,2 52612  53.2155 153.5622 0002091  95.0945 265.0285 15.08857269 45960,6917.828,95.436,541.139,538.246,0.0
52612.0,STARLINK-4002,PAYLOAD,2023-03-11 10:06:43,15.088155,0.0001851,53.2142,151.4815,102.4165,257.7034,0.0013571,0.00021362,0.0,0 STARLINK-4002,1 52612U 22052Q   23070.42134189  .00021362  00000-0  13571-2 0  9994,2 52612  53.2142 151.4815 0001851 102.4165 257.7034 15.08815500 45666,6917.955,95.439,541.101,538.54,0.0
52612.0,STARLINK-4002,PAYLOAD,2023-03-11 16:28:16,15.08839469,0.0001708,53.2139,150.2917,107.5222,252.5957,0.0030515,0.00048611,0.0,0 STARLINK-4002,1 52612U 22052Q   23070.68630484  .00048611  00000-0  30515-2 0  9994,2 52612  53.2139 150.2917 0001708 107.5222 252.5957 15.08839469 46076,6917.882,95.438,540.929,538.565,0.0
52612.0,STARLINK-4002,PAYLOAD,2023-03-12 14:43:41,15.08864311,0.0001753,53.2152,146.1284,100.9975,259.1214,0.0028521,0.00045427,0.0,0 STARLINK-4002,1 52612U 22052Q   23071.61367424  .00045427  00000-0  28521-2 0  9995,2 52612  53.2152 146.1284 0001753 100.9975 259.1214 15.08864311 46213,6917.806,95.436,540.884,538.458,0.0
52612.0,STARLINK-4002,PAYLOAD,2023-03-12 21:05:13,15.08850295,0.0001032,53.2149,144.9388,158.626,201.4775,0.00059125,9.137e-05,0.0,0 STARLINK-4002,1 52612U 22052Q   23071.87863071  .00009137  00000-0  59125-3 0  9995,2 52612  53.2149 144.9388 0001032 158.6260 201.4775 15.08850295 45887,6917.849,95.437,540.428,539.0,0.0
52612.0,STARLINK-4002,PAYLOAD,2023-03-13 05:02:10,15.08834601,0.0001191,53.2142,143.452,99.73,260.3827,0.0018479,0.00029239,0.0,0 STARLINK-4002,1 52612U 22052Q   23072.20983955  .00029239  00000-0  18479-2 0  9998,2 52612  53.2142 143.4520 0001191  99.7300 260.3827 15.08834601 46301,6917.897,95.438,540.586,538.938,0.0
52612.0,STARLINK-4002,PAYLOAD,2023-03-14 11:14:29,15.08862736,0.0001305,53.2157,137.803,77.7115,282.4023,0.00081537,0.0001272,0.0,0 STARLINK-4002,1 52612U 22052Q   23073.46839313  .00012720  00000-0  81537-3 0  9998,2 52612  53.2157 137.8030 0001305  77.7115 282.4023 15.08862736 46490,6917.811,95.436,540.579,538.773,0.0
52612.0,STARLINK-4002,PAYLOAD,2023-03-14 20:46:47,15.08862712,0.0001249,53.214,136.0183,74.4026,285.7104,0.00050636,7.785e-05,0.0,0 STARLINK-4002,1 52612U 22052Q   23073.86582848  .00007785  00000-0  50636-3 0  9991,2 52612  53.2140 136.0183 0001249  74.4026 285.7104 15.08862712 46180,6917.811,95.436,540.54,538.812,0.0
52612.0,STARLINK-4002,PAYLOAD,2023-03-15 03:08:19,15.08870518,0.0001327,53.2145,134.8306,79.2923,280.8219,-2.2059e-06,-3.23e-06,0.0,0 STARLINK-4002,1 52612U 22052Q   23074.13078368 -.00000323  00000-0 -22059-5 0  9992,2 52612  53.2145 134.8306 0001327  79.2923 280.8219 15.08870518 46595,6917.787,95.436,540.57,538.734,0.0
52612.0,STARLINK-4002,PAYLOAD,2023-03-15 12:40:37,15.08886996,0.0001488,53.216,133.0452,90.2178,269.8985,0.0011286,0.00017742,0.0,0 STARLINK-4002,1 52612U 22052Q   23074.52821409  .00017742  00000-0  11286-2 0  9995,2 52612  53.2160 133.0452 0001488  90.2178 269.8985 15.08886996 46288,6917.737,95.435,540.631,538.572,0.0
52612.0,STARLINK-4002,PAYLOAD,2023-03-15 14:16:00,15.08896537,0.000142,53.2159,132.7477,87.9041,272.2114,0.001482,0.00023413,0.0,0 STARLINK-4002,1 52612U 22052Q   23074.59445083  .00023413  00000-0  14820-2 0  9991,2 52612  53.2159 132.7477 0001420  87.9041 272.2114 15.08896537 46663,6917.708,95.434,540.555,538.59,0.0
52612.0,STARLINK-4002,PAYLOAD,2023-03-15 20:37:33,15.08851164,0.0001286,53.2145,131.5577,95.5116,264.6023,-0.00012611,-2.295e-05,0.0,0 STARLINK-4002,1 52612U 22052Q   23074.85941551 -.00002295  00000-0 -12611-3 0  9995,2 52612  53.2145 131.5577 0001286  95.5116 264.6023 15.08851164 46339,6917.846,95.437,540.601,538.822,0.0
52612.0,STARLINK-4002,PAYLOAD,2023-03-16 10:56:02,15.08832813,8.16e-05,53.2144,128.8818,103.4783,256.63,0.0012304,0.00019344,0.0,0 STARLINK-4002,1 52612U 22052Q   23075.45557958  .00019344  00000-0  12304-2 0  9995,2 52612  53.2144 128.8818 0000816 103.4783 256.6300 15.08832813 46791,6917.902,95.438,540.332,539.203,0.0
52612.0,STARLINK-4002,PAYLOAD,2023-03-16 14:06:48,15.08835048,8.89e-05,53.2138,128.2861,99.1315,260.9777,0.0013645,0.00021492,0.0,0 STARLINK-4002,1 52612U 22052Q   23075.58806028  .00021492  00000-0  13645-2 0  9990,2 52612  53.2138 128.2861 0000889  99.1315 260.9777 15.08835048 46449,6917.896,95.438,540.376,539.146,0.0
52612.0,STARLINK-4002,PAYLOAD,2023-03-16 20:28:21,15.08818673,1.93e-05,53.2146,127.0993,122.2493,237.8518,-0.00030264,-5.098e-05,0.0,0 STARLINK-4002,1 52612U 22052Q   23075.85302194 -.00005098  00000-0 -30264-3 0  9998,2 52612  53.2146 127.0993 0000193 122.2493 237.8518 15.08818673 46489,6917.946,95.439,539.944,539.677,0.0
52612.0,STARLINK-4002,PAYLOAD,2023-03-17 02:49:54,15.08813255,9.54e-05,53.2138,125.9084,83.2489,276.8612,-1.1556e-05,-4.71e-06,0.0,0 STARLINK-4002,1 52612U 22052Q   23076.11799144 -.00000471  00000-0 -11556-4 0  9997,2 52612  53.2138 125.9084 0000954  83.2489 276.8612 15.08813255 46898,6917.962,95.439,540.487,539.167,0.0
52612.0,STARLINK-4002,PAYLOAD,2023-03-17 10:46:50,15.08816872,0.0001109,53.215,124.4206,81.8628,278.249,0.00012742,1.739e-05,0.0,0 STARLINK-4002,1 52612U 22052Q   23076.44919846  .00001739  00000-0  12742-3 0  9999,2 52612  53.2150 124.4206 0001109  81.8628 278.2490 15.08816872 46577,6917.951,95.439,540.583,539.049,0.0
52612.0,STARLINK-4002,PAYLOAD,2023-03-17 20:19:09,15.0883203,0.0001112,53.2141,122.6372,77.0436,283.068,0.0008729,0.00013629,0.0,0 STARLINK-4002,1 52612U 22052Q   23076.84664175  .00013629  00000-0  87290-3 0  9996,2 52612  53.2141 122.6372 0001112  77.0436 283.0680 15.08832030 47007,6917.905,95.438,540.539,539.0,0.0
52612.0,STARLINK-4002,PAYLOAD,2023-03-18 09:02:14,15.08860117,8.67e-05,53.2136,120.2577,74.7047,285.4041,0.0014146,0.00022309,0.0,0 STARLINK-4002,1 52612U 22052Q   23077.37655753  .00022309  00000-0  14146-2 0  9991,2 52612  53.2136 120.2577 0000867  74.7047 285.4041 15.08860117 47082,6917.819,95.436,540.284,539.084,0.0
52612.0,STARLINK-4002,PAYLOAD,2023-03-18 20:09:56,15.08858508,8.14e-05,53.214,118.1754,74.8042,285.304,0.00078328,0.00012206,0.0,0 STARLINK-4002,1 52612U 22052Q   23077.84023404  .00012206  00000-0  78328-3 0  9993,2 52612  53.2140 118.1754 0000814  74.8042 285.3040 15.08858508 47155,6917.824,95.436,540.252,539.126,0.0
52612.0,STARLINK-4002,PAYLOAD,2023-03-19 08:53:01,15.08857612,0.000121,53.2152,115.7951,91.5677,268.5454,0.00055899,8.624e-05,0.0,0 STARLINK-4002,1 52612U 22052Q   23078.37015241  .00008624  00000-0  55899-3 0  9999,2 52612  53.2152 115.7951 0001210  91.5677 268.5454 15.08857612 47237,6917.827,95.436,540.529,538.854,0.0
52612.0,STARLINK-4002,PAYLOAD,2023-03-19 20:00:43,15.08848955,0.0001084,53.2141,113.7139,90.0858,270.0258,0.00048029,7.366e-05,0.0,0 STARLINK-4002,1 52612U 22052Q   23078.83383214  .00007366  00000-0  48029-3 0  9997,2 52612  53.2141 113.7139 0001084  90.0858 270.0258 15.08848955 47303,6917.853,95.437,540.468,538.968,0.0
52612.0,STARLINK-4002,PAYLOAD,2023-03-20 08:43:49,15.08809795,0.000119,53.2147,111.3347,90.4037,269.7092,-0.00076535,-0.00012437,0.0,0 STARLINK-4002,1 52612U 22052Q   23079.36376337 -.00012437  00000-0 -76535-3 0  9994,2 52612  53.2147 111.3347 0001190  90.4037 269.7092 15.08809795 47383,6917.973,95.439,540.661,539.014,0.0
52612.0,STARLINK-4002,PAYLOAD,2023-03-20 11:54:35,15.08807544,0.0001074,53.2146,110.7399,88.7537,271.3578,-0.00056853,-9.316e-05,0.0,0 STARLINK-4002,1 52612U 22052Q   23079.49624620 -.00009316  00000-0 -56853-3 0  9992,2 52612  53.2146 110.7399 0001074  88.7537 271.3578 15.08807544 47038,6917.98,95.44,540.588,539.102,0.0
52612.0,STARLINK-4002,PAYLOAD,2023-03-21 02:13:04,15.08839411,0.0001177,53.2142,108.0634,79.3088,280.8037,0.0012309,0.00019356,0.0,0 STARLINK-4002,1 52612U 22052Q   23080.09241130  .00019356  00000-0  12309-2 0  9991,2 52612  53.2142 108.0634 0001177  79.3088 280.8037 15.08839411 47490,6917.882,95.438,540.561,538.933,0.0
